#cP2015  1  2  0  0  0.00000000      96 ORBIT IGb08 HLM  IGS
## 1825 432000.00000000   900.00000000 57024 0.0000000000000
+   32   G01G02G03G04G05G06G07G08G09G10G11G12G13G14G15G16G17
+        G18G19G20G21G22G23G24G25G26G27G28G29G30G31G32  0  0
+          0  0  0  0  0  0  0  0  0  0  0  0  0  0  0  0  0
+          0  0  0  0  0  0  0  0  0  0  0  0  0  0  0  0  0
+          0  0  0  0  0  0  0  0  0  0  0  0  0  0  0  0  0
++         2  2  2  2  2  2  2  3  2  2  2  2  2  2  2  2  2
++         2  2  2  2  2  2  2  2  2  2  2  2  2  2  2  0  0
++         0  0  0  0  0  0  0  0  0  0  0  0  0  0  0  0  0
++         0  0  0  0  0  0  0  0  0  0  0  0  0  0  0  0  0
++         0  0  0  0  0  0  0  0  0  0  0  0  0  0  0  0  0
%c G  cc GPS ccc cccc cccc cccc cccc ccccc ccccc ccccc ccccc
%c cc cc ccc ccc cccc cccc cccc cccc ccccc ccccc ccccc ccccc
%f  1.2500000  1.025000000  0.00000000000  0.000000000000000
%f  0.0000000  0.000000000  0.00000000000  0.000000000000000
%i    0    0    0    0      0      0      0      0         0
%i    0    0    0    0      0      0      0      0         0
/* FINAL ORBIT COMBINATION FROM WEIGHTED AVERAGE OF:        
/* cod emr esa gfz grg jpl mit ngs sio                      
/* REFERENCED TO IGS TIME (IGST) AND TO WEIGHTED MEAN POLE: 
/* PCV:IGS08_1822 OL/AL:FES2004  NONE     Y  ORB:CMB CLK:CMB
*  2015  1  2 11 15  0.00000000
PG01  21475.100161  11093.444036  11144.406900    -10.578865  7  5  3 108       
PG02 -11748.741862 -21901.667842  10340.931988    539.457396  8  7  5 122       
PG03  14717.006167   4028.640735  21744.910051    120.588645  5  6  5  86       
PG04  19431.600553  18262.524276   1127.631685     -5.077975  8  5  2 105       
PG05  -4497.829326 -21985.752555 -14123.611396   -298.230714  5  3  4  91       
PG06   1166.072025 -18126.483203  19372.384396     40.992626  6  3  4 108       
PG07  18075.991258    -75.079775 -19484.047950    427.870190  9  4  5 111       
PG08  14002.577424  22687.011729   3727.456385     16.959142  8  7  8 119       
PG09  25463.477175  -7469.308810  -1257.223540    -43.554126  5  5  4  97       
PG10   8771.929995 -24705.924366   2018.380722   -157.002707  4  3  3 103       
PG11  24001.831514  11510.942955    562.422335   -547.968584  9  6  4 113       
PG12 -12593.142486  -7920.541627  21944.833173    258.241818  6  3  4 106       
PG13  -6116.164650 -14071.715225 -21842.680892    -75.064881  6  5  7 108       
PG14 -14493.853556  14455.305131  17076.237890    100.635625  7  5  2 104       
PG15 -21674.984413  -4927.571168 -14844.383836   -223.941629  7  4  6  98       
PG16   2531.242424  21865.906953 -14645.096998   -168.297866  7  6  5 113       
PG17  15938.790403 -14342.109727  15808.487816   -147.619838  5  3  6 100       
PG18 -15297.759050  15740.446902 -14265.964370    369.420848  7  6  7 108       
PG19  17312.935586   9814.729003 -17979.440631   -494.998118  7  8  4 114       
PG20  16462.413514  -5204.584681  20007.242284    274.159076  7  5  6  96       
PG21 -15040.064190   6289.471998 -20363.919946   -403.777291  6  5  8  92       
PG22  -9479.289935  24385.189975  -3800.780459    303.133172  5  2  5 120       
PG23  25302.508055    295.373250   8883.927157    -78.827606  9  5  5  94       
PG24 -21553.115668 -13282.300765   8230.490074    -41.081166  4  6  5  91       
PG25 -15933.939476   6953.010285  19957.244474      5.773839  6  4  5  95       
PG26  -9483.890688 -13431.328782 -21580.274562   -178.368098  2  4  5 103       
PG27   6501.508812  13836.905624 -21735.827522     41.441475  6  7  7  93       
PG28  12865.518003 -21783.636953  -7271.853940    409.604566  4  4  4 116       
PG29 -26168.951294   4187.840303   1427.405560    583.395161  7  5  2  71       
PG30  10713.829335 -10976.807546 -21680.452726    -86.206537  4  6  6 105       
PG31    632.434445  19124.610314  18419.793203    326.265634  7  4  5  95       
PG32   7681.127204  17610.491766  18559.639024   -256.823533  6  5  3  92       
*  2015  1  2 11 30  0.00000000
PG01  22136.518626  12036.944095   8607.018111    -10.578533  7  5  3 108       
PG02 -10663.051835 -21220.541412  12698.463948    539.459476  8  6  5 123       
PG03  14107.243476   6430.435965  21566.578980    120.612808  5  6  5  93       
PG04  19231.201076  18480.033815  -1669.232086     -5.078737  8  5  3  94       
PG05  -3909.842568 -23374.982077 -11863.900335   -298.226070  6  3  4  96       
PG06   2885.768894 -16620.895031  20507.274537     41.001005  5  3  4 112       
PG07  19518.077161   1522.760534 -18015.617148    427.873295  9  4  5 110       
PG08  13575.937022  22322.292948   6536.193834     16.959294  8  7  8 132       
PG09  25517.603390  -7213.841591   1594.132840    -43.563537  5  5  4  88       
PG10   8995.924497 -24195.192971   4822.423286   -157.004218  4  3  3 104       
PG11  23786.481926  11889.013483  -2140.214475   -547.971271  9  6  4 110       
PG12 -11866.704265 -10297.218067  21376.444484    258.244382  6  3  4 108       
PG13  -3682.773034 -14519.904230 -22109.921274    -75.067532  5  5  6 100       
PG14 -16296.131659  14666.865464  15120.785647    100.632423  7  4  3 105       
PG15 -20044.005781  -5690.288817 -16724.303912   -223.943935  7  4  6  92       
PG16   1917.331910  23290.182228 -12319.649054   -168.294815  6  7  5  97       
PG17  17581.627128 -14561.508380  13664.339435   -147.621917  6  3  6 105       
PG18 -15153.327226  13886.267709 -16184.592824    369.423386  8  6  7 110       
PG19  15273.320358  10299.418794 -19468.066722   -494.999486  7  8  4 104       
PG20  16147.600400  -2845.577412  20727.336946    274.162520  7  5  6  98       
PG21 -16743.385487   4567.205774 -19540.349791   -403.779668  6  5  8  93       
PG22  -9697.835455  23698.147682  -6503.360626    303.136638  5  3  6 113       
PG23  24274.060088    814.897648  11367.696354    -78.829934  9  6  5  82       
PG24 -21959.482978 -14001.932185   5541.036396    -41.083043  4  6  5  95       
PG25 -15450.963346   4643.513368  20990.627094      5.771806  6  4  5  85       
PG26  -7172.426748 -13884.292829 -22172.073156   -178.380197  3  4  6 111       
PG27   4113.689916  14541.742051 -21851.192956     41.443879  7  7  7 102       
PG28  12715.611928 -20712.845603  -9953.390084    409.606886  5  4  4 117       
PG29 -25904.623221   3896.352524   4283.346006    583.397219  7  4  2  70       
PG30  12367.477007  -9127.116137 -21661.937187    -86.206918  5  6  7 114       
PG31   -966.223304  17654.604374  19858.281033    326.264964  7  4  5  98       
PG32   6904.090001  19479.371970  16976.984458   -256.815662  6  5  2  96       
*  2015  1  2 11 45  0.00000000
PG01  22623.501478  12750.887553   5922.592088    -10.578187  7  6  4 110       
PG02  -9350.728528 -20437.512962  14846.333536    539.461357  7  6  5 118       
PG03  13630.098606   8820.553977  21017.189633    120.636928  6  6  5  94       
PG04  18804.110681  18505.619312  -4437.916018     -5.079349  8  5  4 113       
PG05  -3438.031237 -24529.047250  -9398.705677   -298.221386  6  3  5  84       
PG06   4764.623100 -15136.782382  21289.057567     41.009415  5  3  4 118       
PG07  20906.087963   2915.067247 -16238.723302    427.876212 10  4  5 106       
PG08  12922.063717  21755.619308   9237.019929     16.959470  9  7  8 110       
PG09  25282.523948  -6853.277042   4418.065031    -43.572951  5  5  4  90       
PG10   9185.074045 -23384.340017   7540.562107   -157.004839  4  3  4 107       
PG11  23311.693426  12161.437161  -4806.545713   -547.973477  9  6  5 116       
PG12 -11295.388973 -12625.485914  20438.951592    258.246975  6  3  4 111       
PG13  -1270.577608 -15102.971262 -22002.933785    -75.070994  5  6  6 116       
PG14 -17859.982811  14912.113222  12907.257572    100.629326  7  4  3 104       
PG15 -18270.220483  -6604.929167 -18321.462277   -223.945737  6  4  6  92       
PG16   1449.776864  24477.877255  -9778.748779   -168.291925  6  7  4 121       
PG17  18969.039161 -14793.096792  11286.255584   -147.624059  7  3  6  97       
PG18 -15058.173170  11825.739623 -17811.782740    369.425667  8  6  7 118       
PG19  13116.740141  10931.501868 -20630.653168   -495.001030  7  8  4 122       
PG20  15934.725777   -414.369276  21085.433956    274.166477  8  5  6 108       
PG21 -18431.903309   3004.878978 -18363.879663   -403.781644  6  5  7  99       
PG22  -9897.357705  22725.578170  -9092.187766    303.140338  4  4  6 125       
PG23  23021.095330   1474.222127  13661.356705    -78.832274  8  6  5  84       
PG24 -22164.894404 -14502.101428   2756.920551    -41.083640  5  7  4 112       
PG25 -15076.963635   2216.887148  21659.323477      5.769764  6  3  5  98       
PG26  -4844.565481 -14477.331646 -22405.680520   -178.392144  3  4  6 114       
PG27   1773.503187  15369.578237 -21590.907252     41.446250  6  7  7 118       
PG28  12554.283507 -19341.625831 -12457.719332    409.609027  5  5  4 116       
PG29 -25349.687937   3500.513331   7065.433202    583.399340  7  4  2  89       
PG30  14097.572406  -7381.859373 -21270.738449    -86.207262  5  6  7 114       
PG31  -2746.043871  16179.400772  20956.174109    326.264465  7  4  5 101       
PG32   6275.864697  21195.728683  15108.180897   -256.807749  6  5  2 102       
EOF
